GLOBALSTAR M024 [-]     
1 25883U 99043A   23330.17008809 -.00000038  00000+0  96065-3 0  9995
2 25883  52.0011 224.5070 0000338 239.4555 291.4242 11.10159005 51669
GLOBALSTAR M027 [-]     
1 25884U 99043B   23330.26210828 -.00000068  00000+0 -15837-3 0  9994
2 25884  52.0218 286.1676 0021056 151.3294 208.8660 11.04366049 78382
GLOBALSTAR M054 [-]     
1 25885U 99043C   23330.54548515 -.00000032  00000+0  10081-2 0  9998
2 25885  52.0101 148.2567 0003395 270.2727 126.1896 11.39202776 54245
GLOBALSTAR M053 [-]     
1 25886U 99043D   23330.52867814 -.00000068  00000+0  30978-4 0  9991
2 25886  52.0005  63.8448 0003748 185.7755 264.8233 11.27652408 55291
GLOBALSTAR M058 [-]     
1 25907U 99049A   23329.99806182 -.00000017  00000+0  91214-3 0  9994
2 25907  51.9915 189.0201 0001399 247.6470 112.4217 11.93170483473591
GLOBALSTAR M050 [-]     
1 25908U 99049B   23330.19580380 -.00000102  00000+0 -15997-3 0  9998
2 25908  51.9986 238.6757 0009202 344.2691 182.3622 12.07424289 79452
GLOBALSTAR M033 [-]     
1 25909U 99049C   23329.82754861 -.00000039  00000+0  50268-3 0  9992
2 25909  51.9881 150.8439 0011754 176.9394 183.1527 12.20259607466238
GLOBALSTAR M055 [-]     
1 25910U 99049D   23330.55141617 -.00000039  00000+0  47002-3 0  9997
2 25910  51.9994 187.2267 0007830  37.8905 322.2497 12.29391252 98348
